GLOBALSTAR M075 [+]     
1 37192U 10054E   23271.40315578 -.00000074  00000+0  16617-3 0  9995
2 37192  51.9942 293.0047 0000405  59.5857  47.5579 12.62261773596720
GLOBALSTAR M073 [+]     
1 37193U 10054F   23271.25340748 -.00000109  00000+0 -30996-4 0  9993
2 37193  52.0048 206.7977 0000607  64.3470  82.2172 12.62267670598530
GLOBALSTAR M083 [+]     
1 37739U 11033A   23271.19355841 -.00000077  00000+0  15119-3 0  9992
2 37739  51.9844 156.5689 0000505  64.6921 111.0275 12.62269420567548
GLOBALSTAR M088 [+]     
1 37740U 11033B   23271.62157140 -.00000107  00000+0 -17650-4 0  9992
2 37740  51.9737  61.2828 0000580  75.6750   5.3628 12.62265852563147
GLOBALSTAR M085 [+]     
1 37742U 11033D   23271.38381308 -.00000076  00000+0  15477-3 0  9990
2 37742  51.9888 336.0375 0000307  84.8626 355.4419 12.62263117564417
GLOBALSTAR M081 [+]     
1 37743U 11033E   23271.49416598 -.00000070  00000+0  18716-3 0  9996
2 37743  51.9980 338.1011 0000461  61.5985  40.2216 12.62264665564572
GLOBALSTAR M089 [+]     
1 37744U 11033F   23271.46480059 -.00000069  00000+0  19504-3 0  9991
2 37744  51.9925 292.5372 0000662  90.5178  57.3410 12.62267464565413
